CORVUS BC2              
1 42846U 17042X   26068.92684092  .00004947  00000+0  34626-3 0  9997
2 42846  97.3955 234.2405 0014586  92.3850 267.9047 15.05610206472122
STARLINK-30366          
1 57749U 23131T   26068.31872542  .00009804  00000+0  73504-3 0  9998
2 57749  42.9994 173.3496 0001649 272.4475  87.6179 15.02782844139872
